[{"OBJECT_NAME":"SCS-01 D","OBJECT_ID":"2025-100D","EPOCH":"2026-03-09T18:08:45.040704","MEAN_MOTION":15.31902149,"ECCENTRICITY":0.00063457,"INCLINATION":97.373,"RA_OF_ASC_NODE":145.4097,"ARG_OF_PERICENTER":266.2302,"MEAN_ANOMALY":93.8214,"EPHEMERIS_TYPE":0,"CLASSIFICATION_TYPE":"U","NORAD_CAT_ID":63985,"ELEMENT_SET_NO":999,"REV_AT_EPOCH":4562,"BSTAR":0.0010528181,"MEAN_MOTION_DOT":0.00032471,"MEAN_MOTION_DDOT":0},{"OBJECT_NAME":"STARLINK-34429","OBJECT_ID":"2025-130AC","EPOCH":"2026-03-09T07:05:03.187392","MEAN_MOTION":15.30206785,"ECCENTRICITY":0.00017157,"INCLINATION":53.1593,"RA_OF_ASC_NODE":90.2926,"ARG_OF_PERICENTER":34.6476,"MEAN_ANOMALY":325.4637,"EPHEMERIS_TYPE":0,"CLASSIFICATION_TYPE":"U","NORAD_CAT_ID":64464,"ELEMENT_SET_NO":999,"REV_AT_EPOCH":4064,"BSTAR":0.0008131646,"MEAN_MOTION_DOT":0.00023807,"MEAN_MOTION_DDOT":0}]
