SCS-01 D                
1 63985U 25100D   26068.75607686  .00032471  00000+0  10528-2 0  9990
2 63985  97.3730 145.4097 0006346 266.2302  93.8214 15.31902149 45621
STARLINK-34429          
1 64464U 25130AC  26068.29517578  .00023807  00000+0  81316-3 0  9992
2 64464  53.1593  90.2926 0001715  34.6476 325.4637 15.30206785 40645
